EKRAN 14
1 15626U 85024A   18252.70451094 -.00000117  00000-0  00000+0 0  9996
2 15626  16.3238 344.0031 0021876 296.7738  57.7282  0.94797281 95378
INTELSAT 510
1 15629U 85025A   18254.90835924 -.00000031 +00000-0 +00000-0 0  9998
2 15629 015.6196 003.3272 0033419 304.2344 073.6304 00.98282473087315
SL-12 R/B(2)
1 15630U 85024D   18255.02605324 -.00000144  00000-0  00000+0 0  9996
2 15630  13.2526 334.7818 0012324 178.7419 262.4274  1.01233019123765
NAHUEL I1 (ANIK C1)
1 15642U 85028B   18254.39217161  .00000004  00000-0  00000+0 0  9994
2 15642  14.9766  15.8389 0012001  67.6065 292.5445  0.99658497127829
LEASAT 3
1 15643U 85028C   18254.58097531 -.00000186 +00000-0 +00000-0 0  9996
2 15643 016.6102 335.3758 0076477 229.8103 140.6043 00.96963649109120
ANIK C1 R/B(PAM-D)
1 15644U 85028D   18255.39202510  .00001580  00000-0  11880-2 0  9990
2 15644  23.1917  47.3116 6920685 142.1677 296.5184  2.71366588308812
GSTAR 1
1 15677U 85035A   18254.48849676 -.00000130 +00000-0 +00000-0 0  9994
2 15677 014.9821 012.6424 0004252 009.9257 038.3015 01.00272603096777
TELECOM 1B
1 15678U 85035B   18254.62156905  .00000042  00000-0  00000+0 0  9997
2 15678  14.2168 344.9833 0003146 278.5236 177.7704  1.00171235108756
ARIANE 3 DEB (SYLDA)
1 15680U 85035D   18255.31872698  .00030508  00000-0  30385-2 0  9993
2 15680   6.7807 148.1741 3461201  34.2686 343.8985  8.38063751563153
SL-12 R/B(2)
1 15693U 84063F   18255.38301490 -.00000108  00000-0  00000+0 0  9993
2 15693  12.2523 332.6366 0015436 186.7047 177.8482  1.03289031 97787
COSMOS 1650 (GLONASS)
1 15697U 85037A   18255.00937698  .00000011  00000-0  00000+0 0  9995
2 15697  64.1132 170.7023 0032497  12.6860 286.0849  2.13102589235924
COSMOS 1651 (GLONASS)
1 15698U 85037B   18254.26661855 +.00000010 +00000-0 +00000-0 0  9992
2 15698 064.0945 170.3674 0014132 013.7768 237.1572 02.13126264259347
COSMOS 1652 (GLONASS)
1 15699U 85037C   18254.27119971 +.00000010 +00000-0 +00000-0 0  9991
2 15699 064.0937 170.6011 0017032 015.3467 280.7760 02.13067392259230
SL-12 R/B(2)
1 15702U 85037F   18254.74427377  .00000011  00000-0  00000+0 0  9990
2 15702  64.0903 169.4308 0033823  11.7525 275.1646  2.13321531259570
SL-12 R/B(AUX MOTOR)
1 15714U 85037G   18254.43532544  .00000225  00000-0  12282-3 0  9998
2 15714  51.8948 263.5799 5508002 190.0366 151.5579  4.72386985542715
SL-12 R/B(AUX MOTOR)
1 15715U 85037H   18254.73535674 +.00003746 +00000-0 +73928-3 0  9994
2 15715 051.9657 117.3901 5228229 152.2727 249.8169 05.23399190470193
MOLNIYA 3-24
1 15738U 85040A   18254.82317875 -.00000032 +00000-0 -79028-2 0  9997
2 15738 064.2358 307.0064 6518571 258.6598 307.3143 02.55629662268729
SL-6 R/B(2)
1 15741U 85040D   18255.43132796 -.00000122  00000-0 -52001-1 0  9997
2 15741  64.2257 270.8772 6799945 265.3741 322.7448  1.96820854239193
COSMOS 1655
1 15751U 85041A   18255.22654628  .00000034  00000-0  20530-4 0  9994
2 15751  82.9530 353.3573 0027593  45.3667 341.2189 13.71700108666288
SL-8 R/B
1 15752U 85041B   18255.22660618  .00000015  00000-0 -17334-6 0  9991
2 15752  82.9517 333.1281 0023163 315.3080  95.9835 13.73117283667903
COSMOS 1656
1 15755U 85042A   18254.88801392 -.00000034  00000-0  59704-5 0  9999
2 15755  71.1114 131.5490 0033376  68.2491 292.2182 14.20426233724832
SL-8 DEB
1 15756U 83079D   18255.49381385  .00000264  00000-0  53878-4 0  9990
2 15756  74.0488 275.5816 0007616  88.1261 272.0780 14.66025195761691
COSMOS 886 DEB
1 15762U 76126BU  18254.11782631 -.00000006  00000-0  10956-3 0  9993
2 15762  65.6597 236.0825 0744637 150.1013 214.4778 12.58381666345550
SCOUT A-1 DEB
1 15764U 73081C   18255.47375184  .00000024  00000-0  19614-4 0  9993
2 15764  90.4278 151.0574 0182776 301.2691 110.8524 13.64327579750056
COSMOS 1275 DEB
1 15766U 81053KB  18254.52904221  .00000650  00000-0  27644-3 0  9994
2 15766  82.9418  77.5362 0007047 232.9375 127.1165 14.23866800709353
COSMOS 1275 DEB
1 15767U 81053KC  18255.52332944  .00000906  00000-0  35058-3 0  9995
2 15767  82.9184  67.9444 0009491 322.3008  37.7512 14.29142119709976
COSMOS 1275 DEB
1 15768U 81053KD  18254.97166288 +.00000765 +00000-0 +46891-3 0  9990
2 15768 083.0752 223.7864 0059654 066.6566 352.9152 14.03679542694557
SL-3 DEB
1 15769U 81043C   18254.92366564 -.00000187 +00000-0 -11783-3 0  9996
2 15769 081.2754 047.0228 0061480 359.5567 000.5537 14.06874829755881
SL-12 R/B(2)
1 15772U 85042D   18254.92834661 +.00000061 +00000-0 +49432-4 0  9993
2 15772 071.1071 102.5192 0033700 058.7825 038.0857 14.21234545725634
SL-12 R/B(AUX MOTOR)
1 15773U 85042E   18254.93041863 -.00000026 +00000-0 +24416-4 0  9996
2 15773 066.5885 144.9869 0027800 042.6315 038.9398 14.26957253731333
SL-12 R/B(AUX MOTOR)
1 15774U 85042F   18255.21711882 -.00000105  00000-0 -86577-5 0  9990
2 15774  66.5862 223.1490 0019095 130.1862 318.8923 14.23883682729608
COSMOS 249 DEB
1 15775U 68091DA  18255.22015236  .00000774  00000-0  98748-3 0  9998
2 15775  62.2940 202.0286 0727193  89.8869  22.1298 12.90597301201034
COSMOS 1275 DEB
1 15780U 81053KE  18254.86267318  .00000330  00000-0  25402-3 0  9991
2 15780  82.8165 290.3588 0054440 340.3264  71.6174 13.89715515686064
THOR ABLESTAR DEB
1 15783U 61015LG  18255.29707098  .00000251  00000-0  77990-4 0  9994
2 15783  67.0422 195.2291 0053500  72.5961  80.8840 14.55614400768503
SL-8 DEB
1 15784U 79060D   18255.32641567  .00000290  00000-0  58213-4 0  9996
2 15784  73.9993  89.1104 0004268 225.4884 195.4628 14.66349745775714
SL-8 DEB
1 15785U 84019C   18254.57066327  .00000221  00000-0  53741-4 0  9993
2 15785  74.0375 319.3500 0009820 354.6183   5.4874 14.58656403919823
DELTA 1 DEB
1 15788U 78026GT  18255.04895022  .00000151  00000-0  14779-3 0  9991
2 15788  98.7250 275.8036 0125772  59.1660 355.8932 13.88841482809632
DELTA 1 DEB *
1 15789U 73086GT  18254.28115588  .00003564  00000-0  22663-1 0  9990
2 15789 103.8016 358.8949 0414097 339.0708  39.5266 12.31557435484702
COSMOS 1660
1 15821U 85047A   18254.80323139 -.00000024 +00000-0 -49760-4 0  9998
2 15821 073.6266 020.2100 0026978 170.8652 298.0235 12.40771640505781
SL-14 R/B
1 15822U 85047B   18254.78257316 -.00000013  00000-0  27473-4 0  9993
2 15822  73.6287   3.7945 0024695 158.3257 314.5902 12.41260934506667
MORELOS 1
1 15824U 85048B   18254.49029770 -.00000024 +00000-0 +00000-0 0  9990
2 15824 015.4039 006.6564 0002643 002.1148 051.4588 00.99465097089043
ARABSAT 1B
1 15825U 85048C   18254.71700330 -.00000370 +00000-0 +00000-0 0  9998
2 15825 014.9418 358.0465 0015384 303.3083 074.5162 01.00406559106969
TELSTAR 303
1 15826U 85048D   18254.70644192 -.00000383  00000-0  00000+0 0  9994
2 15826  15.1974  10.1224 0003246 232.4137 127.5796  0.99878948101133
COSMOS 1661
1 15827U 85049A   18254.92965344 +.00000669 +00000-0 +00000-0 0  9992
2 15827 067.6762 260.0251 6011852 131.1585 222.1944 02.00379094243447
SL-6 R/B(2)
1 15830U 85049D   18254.97284094 -.00000031  00000-0  00000+0 0  9990
2 15830  66.1996 349.7028 6576254  55.4056 350.0545  1.98681090241112
MORELOS 1 R/B(PAM-D)
1 15832U 85048F   18254.37468770 +.00000056 +00000-0 +47158-3 0  9995
2 15832 025.5782 044.9673 7156763 146.3607 292.7376 02.36844793228515
ARABSAT 1B R/B(PAM-D)
1 15836U 85048G   18254.11262394 -.00000146  00000-0  19506-4 0  9993
2 15836  27.0176  29.4543 7128151  22.5732 357.1175  2.39846432285725
TELSTAR 3D R/B(PAM-D)
1 15837U 85048H   18254.84501424 -.00000088 +00000-0 +19120-3 0  9990
2 15837 025.3622 257.3616 7222616 105.4041 338.5375 02.27177888219520
INTELSAT 511
1 15873U 85055A   18254.70309288 -.00000351  00000-0  00000+0 0  9993
2 15873  15.1838   2.6398 0010551  15.6344   2.9239  1.00110542 96155
ATLAS CENTAUR R/B
1 15874U 85055B   18253.07155103 +.00001134 +00000-0 +33778-3 0  9999
2 15874 023.0247 193.7299 6571464 291.8376 013.0888 03.20420284344862
ARIANE 1 R/B
1 15876U 85056B   18255.16161136  .00000653  00000-0  13932-2 0  9991
2 15876   8.1887 245.5170 6273676 350.3782   1.6356  3.51161328299843
COSMOS 1666
1 15889U 85058A   18255.13529674  .00000645  00000-0  29887-4 0  9998
2 15889  82.4855 266.9667 0015614 291.7483 132.1430 15.18214741810724
SL-14 R/B
1 15890U 85058B   18254.92007821 +.00000062 +00000-0 +45768-5 0  9991
2 15890 082.5283 197.9121 0021151 167.3315 252.7335 14.83379205770710
COSMOS 1670
1 15930U 85064A   18255.49464555 -.00000077  00000-0  10610-4 0  9991
2 15930  64.9392 294.6875 0079322 239.3781 119.9440 13.83726633661845
OSCAR 30
1 15935U 85066A   18255.09198240  .00000017  00000-0  16032-4 0  9996
2 15935  90.1399  56.3148 0169076 355.2595 139.6172 13.35653336611001
OSCAR 24
1 15936U 85066B   18255.46300127  .00000015  00000-0  12088-4 0  9992
2 15936  90.1292  49.5824 0169681 358.8004  60.7193 13.35524908613141
SCOUT G-1 R/B
1 15938U 85066C   18255.51175987  .00000033  00000-0  44547-4 0  9999
2 15938  90.1328  51.3569 0170314  15.0312 345.5802 13.35106342610628
COSMOS 1674
1 15944U 85069A   18255.28132236  .00000608  00000-0  27289-4 0  9995
2 15944  82.5091 141.2218 0017423   4.5329 355.6059 15.19080920806562
SL-14 R/B
1 15945U 85069B   18254.92737351 +.00000057 +00000-0 +40148-5 0  9993
2 15945 082.5255 069.9454 0018591 228.3374 131.6251 14.83981223766945
RADUGA 16
1 15946U 85070A   18254.50878963  .00000052  00000-0  00000+0 0  9997
2 15946  13.9035 341.0928 0003177 283.8751  97.1068  1.00257483 93785
SCOUT G-1 DEB
1 15950U 85066D   18254.91016022 +.00000463 +00000-0 +34906-3 0  9994
2 15950 089.9173 331.1733 0117743 098.1605 316.0070 13.89502507647017
SCOUT G-1 DEB
1 15951U 85066E   18254.87636243 +.00000641 +00000-0 +55317-3 0  9990
2 15951 089.8182 222.1902 0151517 023.8392 033.3400 13.80397755641501
COSMOS 1675
1 15952U 85071A   18255.15251683  .00000998  00000-0  98314-3 0  9999
2 15952  64.7699 341.6228 6650457 358.5098   0.2772  3.04964681301061
